[{"OBJECT_NAME":"STARLINK-32729","OBJECT_ID":"2025-003L","EPOCH":"2026-03-09T22:45:00.245664","MEAN_MOTION":15.27592049,"ECCENTRICITY":0.00027886,"INCLINATION":42.9976,"RA_OF_ASC_NODE":287.2827,"ARG_OF_PERICENTER":244.6086,"MEAN_ANOMALY":115.4477,"EPHEMERIS_TYPE":0,"CLASSIFICATION_TYPE":"U","NORAD_CAT_ID":62497,"ELEMENT_SET_NO":999,"REV_AT_EPOCH":6671,"BSTAR":0.0011867832,"MEAN_MOTION_DOT":0.00032554,"MEAN_MOTION_DDOT":0},{"OBJECT_NAME":"COSMOS 2251 DEB","OBJECT_ID":"1993-036AWN","EPOCH":"2026-03-09T06:26:08.321568","MEAN_MOTION":15.11257706,"ECCENTRICITY":0.00842289,"INCLINATION":74.0116,"RA_OF_ASC_NODE":284.5024,"ARG_OF_PERICENTER":350.308,"MEAN_ANOMALY":9.6482,"EPHEMERIS_TYPE":0,"CLASSIFICATION_TYPE":"U","NORAD_CAT_ID":35996,"ELEMENT_SET_NO":999,"REV_AT_EPOCH":73632,"BSTAR":0.00055219842,"MEAN_MOTION_DOT":0.00010085,"MEAN_MOTION_DDOT":0}]
